start=new Date('2022-06-28T00:00:00.000Z').valueOf();
sats=[{"REF_FRAME":"TEME","DECAY_DATE":null,"NORAD_CAT_ID":"47880","ELEMENT_SET_NO":"999","SEMIMAJOR_AXIS":"6925.380","TLE_LINE1":"1 47880U 21021W   22178.83815219 -.00001237  00000-0 -64170-4 0  9997","RA_OF_ASC_NODE":"225.8324","LAUNCH_DATE":"2021-03-14","OBJECT_ID":"2021-021W","FILE":"3504144","OBJECT_TYPE":"PAYLOAD","ARG_OF_PERICENTER":"45.4193","OBJECT_NAME":"STARLINK-2337","APOAPSIS":"548.691","BSTAR":"-0.00006417000000","MEAN_MOTION_DOT":"-0.00001237","PERIAPSIS":"545.800","MEAN_ELEMENT_THEORY":"SGP4","RCS_SIZE":"LARGE","EPOCH":"2022-06-27T20:06:56.349216","TIME_SYSTEM":"UTC","CENTER_NAME":"EARTH","REV_AT_EPOCH":"7244","TLE_LINE2":"2 47880  53.0548 225.8324 0002087  45.4193 314.6966 15.06389610 72444","SITE":"AFETR","EPHEMERIS_TYPE":"0","COUNTRY_CODE":"US","MEAN_MOTION":"15.06389610","MEAN_MOTION_DDOT":"0.0000000000000","ECCENTRICITY":"0.00020870","CLASSIFICATION_TYPE":"U","PERIOD":"95.593","MEAN_ANOMALY":"314.6966","GP_ID":"206991909","INCLINATION":"53.0548"},{"LAUNCH_DATE":"2021-03-14","OBJECT_ID":"2021-021X","REF_FRAME":"TEME","DECAY_DATE":null,"NORAD_CAT_ID":"47881","SEMIMAJOR_AXIS":"6925.374","ELEMENT_SET_NO":"999","TLE_LINE1":"1 47881U 21021X   22178.86395023  .00000061  00000-0  23014-4 0  9991","RA_OF_ASC_NODE":"225.7207","ARG_OF_PERICENTER":"76.3938","OBJECT_TYPE":"PAYLOAD","FILE":"3504144","EPOCH":"2022-06-27T20:44:05.299872","TIME_SYSTEM":"UTC","CENTER_NAME":"EARTH","TLE_LINE2":"2 47881  53.0526 225.7207 0001452  76.3938 283.7213 15.06391668 72419","REV_AT_EPOCH":"7241","OBJECT_NAME":"STARLINK-2339","BSTAR":"0.00002301400000","APOAPSIS":"548.245","PERIAPSIS":"546.234","MEAN_MOTION_DOT":"0.00000061","RCS_SIZE":"LARGE","MEAN_ELEMENT_THEORY":"SGP4","PERIOD":"95.593","MEAN_ANOMALY":"283.7213","INCLINATION":"53.0526","GP_ID":"206992155","EPHEMERIS_TYPE":"0","SITE":"AFETR","MEAN_MOTION":"15.06391668","COUNTRY_CODE":"US","MEAN_MOTION_DDOT":"0.0000000000000","ECCENTRICITY":"0.00014520","CLASSIFICATION_TYPE":"U"},{"NORAD_CAT_ID":"47882","REF_FRAME":"TEME","DECAY_DATE":null,"TLE_LINE1":"1 47882U 21021Y   22178.83907033 -.00000745  00000-0 -31105-4 0  9990","RA_OF_ASC_NODE":"215.8338","SEMIMAJOR_AXIS":"6925.368","ELEMENT_SET_NO":"999","OBJECT_ID":"2021-021Y","LAUNCH_DATE":"2021-03-14","FILE":"3504144","OBJECT_TYPE":"PAYLOAD","ARG_OF_PERICENTER":"92.2756","APOAPSIS":"548.195","BSTAR":"-0.00003110500000","OBJECT_NAME":"STARLINK-2340","MEAN_ELEMENT_THEORY":"SGP4","RCS_SIZE":"LARGE","MEAN_MOTION_DOT":"-0.00000745","PERIAPSIS":"546.272","CENTER_NAME":"EARTH","TIME_SYSTEM":"UTC","EPOCH":"2022-06-27T20:08:15.676512","REV_AT_EPOCH":"7275","TLE_LINE2":"2 47882  53.0555 215.8338 0001389  92.2756 267.8392 15.06393500 72756","COUNTRY_CODE":"US","MEAN_MOTION":"15.06393500","SITE":"AFETR","EPHEMERIS_TYPE":"0","ECCENTRICITY":"0.00013890","CLASSIFICATION_TYPE":"U","MEAN_MOTION_DDOT":"0.0000000000000","PERIOD":"95.593","MEAN_ANOMALY":"267.8392","INCLINATION":"53.0555","GP_ID":"206990409"},{"APOAPSIS":"548.294","BSTAR":"0.00002709800000","OBJECT_NAME":"STARLINK-2342","MEAN_ELEMENT_THEORY":"SGP4","RCS_SIZE":"LARGE","MEAN_MOTION_DOT":"0.00000122","PERIAPSIS":"546.157","CENTER_NAME":"EARTH","TIME_SYSTEM":"UTC","EPOCH":"2022-06-27T19:27:47.188512","REV_AT_EPOCH":"7268","TLE_LINE2":"2 47883  53.0541 220.9519 0001543  61.7326 298.3819 15.06396082 72689","COUNTRY_CODE":"US","MEAN_MOTION":"15.06396082","SITE":"AFETR","EPHEMERIS_TYPE":"0","CLASSIFICATION_TYPE":"U","ECCENTRICITY":"0.00015430","MEAN_MOTION_DDOT":"0.0000000000000","PERIOD":"95.592","MEAN_ANOMALY":"298.3819","INCLINATION":"53.0541","GP_ID":"206990659","NORAD_CAT_ID":"47883","REF_FRAME":"TEME","DECAY_DATE":null,"TLE_LINE1":"1 47883U 21021Z   22178.81096283  .00000122  00000-0  27098-4 0  9998","RA_OF_ASC_NODE":"220.9519","SEMIMAJOR_AXIS":"6925.361","ELEMENT_SET_NO":"999","OBJECT_ID":"2021-021Z","LAUNCH_DATE":"2021-03-14","FILE":"3504144","OBJECT_TYPE":"PAYLOAD","ARG_OF_PERICENTER":"61.7326"},{"FILE":"3504144","OBJECT_TYPE":"PAYLOAD","ARG_OF_PERICENTER":"61.8411","SEMIMAJOR_AXIS":"6925.376","ELEMENT_SET_NO":"999","RA_OF_ASC_NODE":"225.7399","TLE_LINE1":"1 47884U 21021AA  22178.86026414  .00000553  00000-0  56034-4 0  9993","REF_FRAME":"TEME","DECAY_DATE":null,"NORAD_CAT_ID":"47884","LAUNCH_DATE":"2021-03-14","OBJECT_ID":"2021-021AA","MEAN_MOTION_DDOT":"0.0000000000000","CLASSIFICATION_TYPE":"U","ECCENTRICITY":"0.00016490","SITE":"AFETR","EPHEMERIS_TYPE":"0","COUNTRY_CODE":"US","MEAN_MOTION":"15.06391073","GP_ID":"206991410","INCLINATION":"53.0541","PERIOD":"95.593","MEAN_ANOMALY":"298.2744","MEAN_MOTION_DOT":"0.00000553","PERIAPSIS":"546.099","MEAN_ELEMENT_THEORY":"SGP4","RCS_SIZE":"LARGE","OBJECT_NAME":"STARLINK-2343","APOAPSIS":"548.383","BSTAR":"0.00005603400000","REV_AT_EPOCH":"7244","TLE_LINE2":"2 47884  53.0541 225.7399 0001649  61.8411 298.2744 15.06391073 72447","EPOCH":"2022-06-27T20:38:46.821696","TIME_SYSTEM":"UTC","CENTER_NAME":"EARTH"},{"PERIOD":"95.593","MEAN_ANOMALY":"287.7664","GP_ID":"206969201","INCLINATION":"53.0551","MEAN_MOTION":"15.06392024","COUNTRY_CODE":"US","EPHEMERIS_TYPE":"0","SITE":"AFETR","ECCENTRICITY":"0.00013940","CLASSIFICATION_TYPE":"U","MEAN_MOTION_DDOT":"0.0000000000000","CENTER_NAME":"EARTH","TIME_SYSTEM":"UTC","EPOCH":"2022-06-27T12:32:28.329504","TLE_LINE2":"2 47885  53.0551 232.2492 0001394  72.3477 287.7664 15.06392024 71846","REV_AT_EPOCH":"7184","BSTAR":"0.00007667300000","APOAPSIS":"548.203","OBJECT_NAME":"STARLINK-2344","RCS_SIZE":"LARGE","MEAN_ELEMENT_THEORY":"SGP4","PERIAPSIS":"546.273","MEAN_MOTION_DOT":"0.00000861","ARG_OF_PERICENTER":"72.3477","OBJECT_TYPE":"PAYLOAD","FILE":"3504105","OBJECT_ID":"2021-021AB","LAUNCH_DATE":"2021-03-14","NORAD_CAT_ID":"47885","REF_FRAME":"TEME","DECAY_DATE":null,"TLE_LINE1":"1 47885U 21021AB  22178.52255011  .00000861  00000-0  76673-4 0  9997","RA_OF_ASC_NODE":"232.2492","SEMIMAJOR_AXIS":"6925.373","ELEMENT_SET_NO":"999"},{"PERIOD":"95.592","MEAN_ANOMALY":"307.0715","INCLINATION":"53.0536","GP_ID":"206990908","MEAN_MOTION":"15.06403131","COUNTRY_CODE":"US","EPHEMERIS_TYPE":"0","SITE":"AFETR","ECCENTRICITY":"0.00017770","CLASSIFICATION_TYPE":"U","MEAN_MOTION_DDOT":"0.0000000000000","TIME_SYSTEM":"UTC","CENTER_NAME":"EARTH","EPOCH":"2022-06-27T20:30:07.060896","TLE_LINE2":"2 47886  53.0536 220.7661 0001777  53.0437 307.0715 15.06403131 72528","REV_AT_EPOCH":"7252","BSTAR":"0.00017078000000","APOAPSIS":"548.435","OBJECT_NAME":"STARLINK-2345","RCS_SIZE":"LARGE","MEAN_ELEMENT_THEORY":"SGP4","PERIAPSIS":"545.973","MEAN_MOTION_DOT":"0.00002263","ARG_OF_PERICENTER":"53.0437","OBJECT_TYPE":"PAYLOAD","FILE":"3504144","OBJECT_ID":"2021-021AC","LAUNCH_DATE":"2021-03-14","NORAD_CAT_ID":"47886","REF_FRAME":"TEME","DECAY_DATE":null,"TLE_LINE1":"1 47886U 21021AC  22178.85424839  .00002263  00000-0  17078-3 0  9991","RA_OF_ASC_NODE":"220.7661","SEMIMAJOR_AXIS":"6925.339","ELEMENT_SET_NO":"999"},{"TIME_SYSTEM":"UTC","CENTER_NAME":"EARTH","EPOCH":"2022-06-27T09:56:32.762112","REV_AT_EPOCH":"7238","TLE_LINE2":"2 47887  53.0533 227.7205 0001372  77.8016 282.3126 15.06401777 72384","APOAPSIS":"548.158","BSTAR":"0.00010495000000","OBJECT_NAME":"STARLINK-2346","MEAN_ELEMENT_THEORY":"SGP4","RCS_SIZE":"LARGE","MEAN_MOTION_DOT":"0.00001282","PERIAPSIS":"546.258","PERIOD":"95.592","MEAN_ANOMALY":"282.3126","GP_ID":"206961613","INCLINATION":"53.0533","COUNTRY_CODE":"US","MEAN_MOTION":"15.06401777","SITE":"AFETR","EPHEMERIS_TYPE":"0","ECCENTRICITY":"0.00013720","CLASSIFICATION_TYPE":"U","MEAN_MOTION_DDOT":"0.0000000000000","OBJECT_ID":"2021-021AD","LAUNCH_DATE":"2021-03-14","NORAD_CAT_ID":"47887","DECAY_DATE":null,"REF_FRAME":"TEME","TLE_LINE1":"1 47887U 21021AD  22178.41426808  .00001282  00000-0  10495-3 0  9998","RA_OF_ASC_NODE":"227.7205","ELEMENT_SET_NO":"999","SEMIMAJOR_AXIS":"6925.343","OBJECT_TYPE":"PAYLOAD","ARG_OF_PERICENTER":"77.8016","FILE":"3503902"},{"FILE":"3504144","OBJECT_TYPE":"PAYLOAD","ARG_OF_PERICENTER":"49.3748","NORAD_CAT_ID":"47888","REF_FRAME":"TEME","DECAY_DATE":null,"RA_OF_ASC_NODE":"215.8471","TLE_LINE1":"1 47888U 21021AE  22178.83538214  .00000004  00000-0  19164-4 0  9994","SEMIMAJOR_AXIS":"6925.359","ELEMENT_SET_NO":"999","OBJECT_ID":"2021-021AE","LAUNCH_DATE":"2021-03-14","COUNTRY_CODE":"US","MEAN_MOTION":"15.06396651","SITE":"AFETR","EPHEMERIS_TYPE":"0","ECCENTRICITY":"0.00019600","CLASSIFICATION_TYPE":"U","MEAN_MOTION_DDOT":"0.0000000000000","PERIOD":"95.592","MEAN_ANOMALY":"310.7411","GP_ID":"206991910","INCLINATION":"53.0537","APOAPSIS":"548.581","BSTAR":"0.00001916400000","OBJECT_NAME":"STARLINK-2348","MEAN_ELEMENT_THEORY":"SGP4","RCS_SIZE":"LARGE","MEAN_MOTION_DOT":"0.00000004","PERIAPSIS":"545.866","CENTER_NAME":"EARTH","TIME_SYSTEM":"UTC","EPOCH":"2022-06-27T20:02:57.016896","REV_AT_EPOCH":"7259","TLE_LINE2":"2 47888  53.0537 215.8471 0001960  49.3748 310.7411 15.06396651 72591"},{"FILE":"3504106","OBJECT_TYPE":"PAYLOAD","ARG_OF_PERICENTER":"51.0909","NORAD_CAT_ID":"47889","DECAY_DATE":null,"REF_FRAME":"TEME","TLE_LINE1":"1 47889U 21021AF  22178.51470515  .00000291  00000-0  38467-4 0  9994","RA_OF_ASC_NODE":"217.2864","SEMIMAJOR_AXIS":"6925.363","ELEMENT_SET_NO":"999","OBJECT_ID":"2021-021AF","LAUNCH_DATE":"2021-03-14","COUNTRY_CODE":"US","MEAN_MOTION":"15.06395312","SITE":"AFETR","EPHEMERIS_TYPE":"0","CLASSIFICATION_TYPE":"U","ECCENTRICITY":"0.00014720","MEAN_MOTION_DDOT":"0.0000000000000","PERIOD":"95.592","MEAN_ANOMALY":"309.0211","GP_ID":"206969568","INCLINATION":"53.0548","APOAPSIS":"548.247","BSTAR":"0.00003846700000","OBJECT_NAME":"STARLINK-2349","MEAN_ELEMENT_THEORY":"SGP4","RCS_SIZE":"LARGE","MEAN_MOTION_DOT":"0.00000291","PERIAPSIS":"546.209","CENTER_NAME":"EARTH","TIME_SYSTEM":"UTC","EPOCH":"2022-06-27T12:21:10.524960","REV_AT_EPOCH":"7206","TLE_LINE2":"2 47889  53.0548 217.2864 0001472  51.0909 309.0211 15.06395312 72067"}];
